{
  "type": "FeatureCollection",
  "features": [
    {
      "type": "Feature",
      "properties": {
        "norad_id": 48859,
        "name": "GPS BIII-5  (PRN 11)",
        "group": "gnss",
        "lat": -14.608233424665013,
        "lon": 170.30643921709924,
        "alt_km": 20131.965758047143,
        "timestamp": "2025-12-14T07:33:19.720367+00:00",
        "meta_object_name": "GPS BIII-5  (PRN 11)",
        "meta_object_id": "2021-054A",
        "meta_epoch": "2025-12-08T04:14:32.423424",
        "meta_mean_motion": 2.00553627,
        "meta_eccentricity": 0.0024678,
        "meta_inclination": 55.2581,
        "meta_ra_of_asc_node": 340.1367,
        "meta_arg_of_pericenter": 233.3994,
        "meta_mean_anomaly": 212.8593,
        "meta_ephemeris_type": 0,
        "meta_classification_type": "U",
        "meta_norad_cat_id": 48859,
        "meta_element_set_no": 999,
        "meta_rev_at_epoch": 3292,
        "meta_bstar": 0,
        "meta_mean_motion_dot": -8.6e-07,
        "meta_mean_motion_ddot": 0,
        "tle_line1": "1 48859U 21054A   25342.17676416 -.00000086  00000+0  00000+0 0  9993",
        "tle_line2": "2 48859  55.2581 340.1367 0024678 233.3994 212.8593  2.00553627 32922"
      },
      "geometry": {
        "type": "Point",
        "coordinates": [
          170.30643921709924,
          -14.608233424665013
        ]
      }
    },
    {
      "type": "Feature",
      "properties": {
        "norad_id": 49336,
        "name": "QZS-1R (QZSS/PRN 196)",
        "group": "gnss",
        "lat": -33.2617796411811,
        "lon": -37.55726112987588,
        "alt_km": 32897.737164520986,
        "timestamp": "2025-12-14T07:33:19.720385+00:00",
        "meta_object_name": "QZS-1R (QZSS/PRN 196)",
        "meta_object_id": "2021-096A",
        "meta_epoch": "2025-12-13T14:08:09.316608",
        "meta_mean_motion": 1.00257492,
        "meta_eccentricity": 0.07555271,
        "meta_inclination": 37.0792,
        "meta_ra_of_asc_node": 82.3463,
        "meta_arg_of_pericenter": 271.3489,
        "meta_mean_anomaly": 75.5912,
        "meta_ephemeris_type": 0,
        "meta_classification_type": "U",
        "meta_norad_cat_id": 49336,
        "meta_element_set_no": 999,
        "meta_rev_at_epoch": 1514,
        "meta_bstar": 0,
        "meta_mean_motion_dot": -2.77e-06,
        "meta_mean_motion_ddot": 0,
        "tle_line1": "1 49336U 21096A   25347.58899672 -.00000277  00000+0  00000+0 0  9993",
        "tle_line2": "2 49336  37.0792  82.3463 0755527 271.3489  75.5912  1.00257492 15146"
      },
      "geometry": {
        "type": "Point",
        "coordinates": [
          -37.55726112987588,
          -33.2617796411811
        ]
      }
    },
    {
      "type": "Feature",
      "properties": {
        "norad_id": 49809,
        "name": "GSAT0223 (GALILEO 27)",
        "group": "gnss",
        "lat": 46.52313724229078,
        "lon": 29.487557493356142,
        "alt_km": 23229.906443379532,
        "timestamp": "2025-12-14T07:33:19.720404+00:00",
        "meta_object_name": "GSAT0223 (GALILEO 27)",
        "meta_object_id": "2021-116A",
        "meta_epoch": "2025-12-10T02:39:25.687008",
        "meta_mean_motion": 1.70475768,
        "meta_eccentricity": 0.000463,
        "meta_inclination": 57.2198,
        "meta_ra_of_asc_node": 346.7831,
        "meta_arg_of_pericenter": 251.6037,
        "meta_mean_anomaly": 107.9349,
        "meta_ephemeris_type": 0,
        "meta_classification_type": "U",
        "meta_norad_cat_id": 49809,
        "meta_element_set_no": 999,
        "meta_rev_at_epoch": 2495,
        "meta_bstar": 0,
        "meta_mean_motion_dot": -8.7e-07,
        "meta_mean_motion_ddot": 0,
        "tle_line1": "1 49809U 21116A   25344.11071397 -.00000087  00000+0  00000+0 0  9992",
        "tle_line2": "2 49809  57.2198 346.7831 0004630 251.6037 107.9349  1.70475768 24951"
      },
      "geometry": {
        "type": "Point",
        "coordinates": [
          29.487557493356142,
          46.52313724229078
        ]
      }
    },
    {
      "type": "Feature",
      "properties": {
        "norad_id": 49810,
        "name": "GSAT0224 (GALILEO 28)",
        "group": "gnss",
        "lat": 6.4979409141766595,
        "lon": 162.4584678680095,
        "alt_km": 23220.22401318471,
        "timestamp": "2025-12-14T07:33:19.720422+00:00",
        "meta_object_name": "GSAT0224 (GALILEO 28)",
        "meta_object_id": "2021-116B",
        "meta_epoch": "2025-12-10T19:26:19.690368",
        "meta_mean_motion": 1.70475895,
        "meta_eccentricity": 0.000393,
        "meta_inclination": 57.2205,
        "meta_ra_of_asc_node": 346.7629,
        "meta_arg_of_pericenter": 256.2791,
        "meta_mean_anomaly": 284.9883,
        "meta_ephemeris_type": 0,
        "meta_classification_type": "U",
        "meta_norad_cat_id": 49810,
        "meta_element_set_no": 999,
        "meta_rev_at_epoch": 2499,
        "meta_bstar": 0,
        "meta_mean_motion_dot": -8.7e-07,
        "meta_mean_motion_ddot": 0,
        "tle_line1": "1 49810U 21116B   25344.80995012 -.00000087  00000+0  00000+0 0  9999",
        "tle_line2": "2 49810  57.2205 346.7629 0003930 256.2791 284.9883  1.70475895 24991"
      },
      "geometry": {
        "type": "Point",
        "coordinates": [
          162.4584678680095,
          6.4979409141766595
        ]
      }
    },
    {
      "type": "Feature",
      "properties": {
        "norad_id": 52984,
        "name": "COSMOS 2557 (706K)",
        "group": "gnss",
        "lat": 59.34141430899313,
        "lon": 14.917552952339786,
        "alt_km": 19155.255359620503,
        "timestamp": "2025-12-14T07:33:19.720448+00:00",
        "meta_object_name": "COSMOS 2557 (706K)",
        "meta_object_id": "2022-075A",
        "meta_epoch": "2025-12-07T04:21:00.419904",
        "meta_mean_motion": 2.13101754,
        "meta_eccentricity": 0.00137049,
        "meta_inclination": 64.4129,
        "meta_ra_of_asc_node": 321.247,
        "meta_arg_of_pericenter": 276.9,
        "meta_mean_anomaly": 82.939,
        "meta_ephemeris_type": 0,
        "meta_classification_type": "U",
        "meta_norad_cat_id": 52984,
        "meta_element_set_no": 999,
        "meta_rev_at_epoch": 2662,
        "meta_bstar": 0,
        "meta_mean_motion_dot": -5.2e-07,
        "meta_mean_motion_ddot": 0,
        "tle_line1": "1 52984U 22075A   25341.18125486 -.00000052  00000+0  00000+0 0  9990",
        "tle_line2": "2 52984  64.4129 321.2470 0013704 276.9000  82.9390  2.13101754 26625"
      },
      "geometry": {
        "type": "Point",
        "coordinates": [
          14.917552952339786,
          59.34141430899313
        ]
      }
    },
    {
      "type": "Feature",
      "properties": {
        "norad_id": 54031,
        "name": "COSMOS 2559 (707K)",
        "group": "gnss",
        "lat": -28.010246349732412,
        "lon": 155.8601378086747,
        "alt_km": 19105.42763788016,
        "timestamp": "2025-12-14T07:33:19.720466+00:00",
        "meta_object_name": "COSMOS 2559 (707K)",
        "meta_object_id": "2022-130A",
        "meta_epoch": "2025-12-13T02:25:11.978976",
        "meta_mean_motion": 2.13101368,
        "meta_eccentricity": 0.00117843,
        "meta_inclination": 64.3821,
        "meta_ra_of_asc_node": 321.1284,
        "meta_arg_of_pericenter": 192.3718,
        "meta_mean_anomaly": 167.5993,
        "meta_ephemeris_type": 0,
        "meta_classification_type": "U",
        "meta_norad_cat_id": 54031,
        "meta_element_set_no": 999,
        "meta_rev_at_epoch": 2472,
        "meta_bstar": 0,
        "meta_mean_motion_dot": -6.2e-07,
        "meta_mean_motion_ddot": 0,
        "tle_line1": "1 54031U 22130A   25347.10083309 -.00000062  00000+0  00000+0 0  9993",
        "tle_line2": "2 54031  64.3821 321.1284 0011784 192.3718 167.5993  2.13101368 24722"
      },
      "geometry": {
        "type": "Point",
        "coordinates": [
          155.8601378086747,
          -28.010246349732412
        ]
      }
    },
    {
      "type": "Feature",
      "properties": {
        "norad_id": 54377,
        "name": "COSMOS 2564 (761)",
        "group": "gnss",
        "lat": -26.105088275504002,
        "lon": -174.52785760580088,
        "alt_km": 19146.50237366484,
        "timestamp": "2025-12-14T07:33:19.720501+00:00",
        "meta_object_name": "COSMOS 2564 (761)",
        "meta_object_id": "2022-161A",
        "meta_epoch": "2025-12-13T09:56:35.350656",
        "meta_mean_motion": 2.13102091,
        "meta_eccentricity": 0.00086002,
        "meta_inclination": 64.7383,
        "meta_ra_of_asc_node": 198.8765,
        "meta_arg_of_pericenter": 204.6894,
        "meta_mean_anomaly": 155.3431,
        "meta_ephemeris_type": 0,
        "meta_classification_type": "U",
        "meta_norad_cat_id": 54377,
        "meta_element_set_no": 999,
        "meta_rev_at_epoch": 2367,
        "meta_bstar": 0,
        "meta_mean_motion_dot": 8.1e-07,
        "meta_mean_motion_ddot": 0,
        "tle_line1": "1 54377U 22161A   25347.41429804  .00000081  00000+0  00000+0 0  9998",
        "tle_line2": "2 54377  64.7383 198.8765 0008600 204.6894 155.3431  2.13102091 23679"
      },
      "geometry": {
        "type": "Point",
        "coordinates": [
          -174.52785760580088,
          -26.105088275504002
        ]
      }
    }
  ]
}